CCSDS_OMM_VERS = 2.0
CREATION_DATE  = 
ORIGINATOR     = 

OBJECT_NAME    = UNKNOWN
OBJECT_ID      = 
CENTER_NAME    = EARTH
REF_FRAME      = TEME
TIME_SYSTEM    = UTC
MEAN_ELEMENT_THEORY = SGP/SGP4

EPOCH          = 2026-02-24T10:00:09.349632
MEAN_MOTION    = 14.85506993
ECCENTRICITY   = .0008227
INCLINATION    = 98.3871
RA_OF_ASC_NODE = 288.7954
ARG_OF_PERICENTER = 261.6896
MEAN_ANOMALY   = 98.3385

EPHEMERIS_TYPE = 0
CLASSIFICATION_TYPE = U
NORAD_CAT_ID   = 89184
ELEMENT_SET_NO = 999
REV_AT_EPOCH   = 50309
BSTAR          = .27721E-2
MEAN_MOTION_DOT = .23966E-3
MEAN_MOTION_DDOT = 0

CCSDS_OMM_VERS = 2.0
CREATION_DATE  = 
ORIGINATOR     = 

OBJECT_NAME    = UNKNOWN
OBJECT_ID      = 
CENTER_NAME    = EARTH
REF_FRAME      = TEME
TIME_SYSTEM    = UTC
MEAN_ELEMENT_THEORY = SGP/SGP4

EPOCH          = 2026-02-24T14:39:38.316096
MEAN_MOTION    = 13.91690108
ECCENTRICITY   = .0226733
INCLINATION    = 98.7735
RA_OF_ASC_NODE = 289.8637
ARG_OF_PERICENTER = 283.8627
MEAN_ANOMALY   = 73.7404

EPHEMERIS_TYPE = 0
CLASSIFICATION_TYPE = U
NORAD_CAT_ID   = 89213
ELEMENT_SET_NO = 999
REV_AT_EPOCH   = 46294
BSTAR          = .28251E-3
MEAN_MOTION_DOT = .399E-5
MEAN_MOTION_DDOT = 0

CCSDS_OMM_VERS = 2.0
CREATION_DATE  = 
ORIGINATOR     = 

OBJECT_NAME    = UNKNOWN
OBJECT_ID      = 
CENTER_NAME    = EARTH
REF_FRAME      = TEME
TIME_SYSTEM    = UTC
MEAN_ELEMENT_THEORY = SGP/SGP4

EPOCH          = 2026-02-24T14:26:28.716864
MEAN_MOTION    = 9.26619628
ECCENTRICITY   = .2827442
INCLINATION    = 62.4737
RA_OF_ASC_NODE = 266.7227
ARG_OF_PERICENTER = 107.5260
MEAN_ANOMALY   = 285.1399

EPHEMERIS_TYPE = 0
CLASSIFICATION_TYPE = U
NORAD_CAT_ID   = 89251
ELEMENT_SET_NO = 999
REV_AT_EPOCH   = 38002
BSTAR          = .89066E-2
MEAN_MOTION_DOT = .15723E-3
MEAN_MOTION_DDOT = 0

CCSDS_OMM_VERS = 2.0
CREATION_DATE  = 
ORIGINATOR     = 

OBJECT_NAME    = UNKNOWN
OBJECT_ID      = 
CENTER_NAME    = EARTH
REF_FRAME      = TEME
TIME_SYSTEM    = UTC
MEAN_ELEMENT_THEORY = SGP/SGP4

EPOCH          = 2026-02-20T10:22:13.073664
MEAN_MOTION    = 14.43288970
ECCENTRICITY   = .0011827
INCLINATION    = 98.1600
RA_OF_ASC_NODE = 47.8830
ARG_OF_PERICENTER = 311.4506
MEAN_ANOMALY   = 48.5668

EPHEMERIS_TYPE = 0
CLASSIFICATION_TYPE = U
NORAD_CAT_ID   = 89261
ELEMENT_SET_NO = 999
REV_AT_EPOCH   = 54386
BSTAR          = .25036E-3
MEAN_MOTION_DOT = .802E-5
MEAN_MOTION_DDOT = 0

CCSDS_OMM_VERS = 2.0
CREATION_DATE  = 
ORIGINATOR     = 

OBJECT_NAME    = UNKNOWN
OBJECT_ID      = 
CENTER_NAME    = EARTH
REF_FRAME      = TEME
TIME_SYSTEM    = UTC
MEAN_ELEMENT_THEORY = SGP/SGP4

EPOCH          = 2026-02-23T07:39:45.086976
MEAN_MOTION    = 12.96277143
ECCENTRICITY   = .0032176
INCLINATION    = 90.2492
RA_OF_ASC_NODE = 8.9742
ARG_OF_PERICENTER = 73.8867
MEAN_ANOMALY   = 286.5792

EPHEMERIS_TYPE = 0
CLASSIFICATION_TYPE = U
NORAD_CAT_ID   = 89349
ELEMENT_SET_NO = 999
REV_AT_EPOCH   = 48815
BSTAR          = .21338E-2
MEAN_MOTION_DOT = .618E-5
MEAN_MOTION_DDOT = 0

CCSDS_OMM_VERS = 2.0
CREATION_DATE  = 
ORIGINATOR     = 

OBJECT_NAME    = UNKNOWN
OBJECT_ID      = 
CENTER_NAME    = EARTH
REF_FRAME      = TEME
TIME_SYSTEM    = UTC
MEAN_ELEMENT_THEORY = SGP/SGP4

EPOCH          = 2026-02-24T00:58:29.080704
MEAN_MOTION    = 13.63376249
ECCENTRICITY   = .0041065
INCLINATION    = 100.4790
RA_OF_ASC_NODE = 80.7903
ARG_OF_PERICENTER = 300.4095
MEAN_ANOMALY   = 59.2988

EPHEMERIS_TYPE = 0
CLASSIFICATION_TYPE = U
NORAD_CAT_ID   = 89379
ELEMENT_SET_NO = 999
REV_AT_EPOCH   = 59076
BSTAR          = .48882E-2
MEAN_MOTION_DOT = .3825E-4
MEAN_MOTION_DDOT = 0

CCSDS_OMM_VERS = 2.0
CREATION_DATE  = 
ORIGINATOR     = 

OBJECT_NAME    = UNKNOWN
OBJECT_ID      = 
CENTER_NAME    = EARTH
REF_FRAME      = TEME
TIME_SYSTEM    = UTC
MEAN_ELEMENT_THEORY = SGP/SGP4

EPOCH          = 2026-02-24T10:27:51.765120
MEAN_MOTION    = 12.01540629
ECCENTRICITY   = .0226548
INCLINATION    = 102.3805
RA_OF_ASC_NODE = 24.5793
ARG_OF_PERICENTER = 0.3993
MEAN_ANOMALY   = 156.5472

EPHEMERIS_TYPE = 0
CLASSIFICATION_TYPE = U
NORAD_CAT_ID   = 89395
ELEMENT_SET_NO = 999
REV_AT_EPOCH   = 53359
BSTAR          = .54686E-2
MEAN_MOTION_DOT = .443E-5
MEAN_MOTION_DDOT = 0

CCSDS_OMM_VERS = 2.0
CREATION_DATE  = 
ORIGINATOR     = 

OBJECT_NAME    = UNKNOWN
OBJECT_ID      = 
CENTER_NAME    = EARTH
REF_FRAME      = TEME
TIME_SYSTEM    = UTC
MEAN_ELEMENT_THEORY = SGP/SGP4

EPOCH          = 2026-02-24T14:55:52.801824
MEAN_MOTION    = 12.98841558
ECCENTRICITY   = .0032343
INCLINATION    = 90.2531
RA_OF_ASC_NODE = 7.4819
ARG_OF_PERICENTER = 26.2334
MEAN_ANOMALY   = 146.7567

EPHEMERIS_TYPE = 0
CLASSIFICATION_TYPE = U
NORAD_CAT_ID   = 89403
ELEMENT_SET_NO = 999
REV_AT_EPOCH   = 48741
BSTAR          = .10604E-2
MEAN_MOTION_DOT = .322E-5
MEAN_MOTION_DDOT = 0

CCSDS_OMM_VERS = 2.0
CREATION_DATE  = 
ORIGINATOR     = 

OBJECT_NAME    = UNKNOWN
OBJECT_ID      = 
CENTER_NAME    = EARTH
REF_FRAME      = TEME
TIME_SYSTEM    = UTC
MEAN_ELEMENT_THEORY = SGP/SGP4

EPOCH          = 2026-02-23T05:05:47.910048
MEAN_MOTION    = 9.25237029
ECCENTRICITY   = .2871648
INCLINATION    = 83.9781
RA_OF_ASC_NODE = 133.5387
ARG_OF_PERICENTER = 289.8785
MEAN_ANOMALY   = 41.7289

EPHEMERIS_TYPE = 0
CLASSIFICATION_TYPE = U
NORAD_CAT_ID   = 89484
ELEMENT_SET_NO = 999
REV_AT_EPOCH   = 36209
BSTAR          = .80733E-1
MEAN_MOTION_DOT = .196782E-2
MEAN_MOTION_DDOT = 0

CCSDS_OMM_VERS = 2.0
CREATION_DATE  = 
ORIGINATOR     = 

OBJECT_NAME    = UNKNOWN
OBJECT_ID      = 
CENTER_NAME    = EARTH
REF_FRAME      = TEME
TIME_SYSTEM    = UTC
MEAN_ELEMENT_THEORY = SGP/SGP4

EPOCH          = 2026-02-19T15:58:21.393696
MEAN_MOTION    = 14.16709593
ECCENTRICITY   = .0082869
INCLINATION    = 99.0185
RA_OF_ASC_NODE = 125.4775
ARG_OF_PERICENTER = 203.4251
MEAN_ANOMALY   = 156.3139

EPHEMERIS_TYPE = 0
CLASSIFICATION_TYPE = U
NORAD_CAT_ID   = 89493
ELEMENT_SET_NO = 999
REV_AT_EPOCH   = 47370
BSTAR          = .1178E-2
MEAN_MOTION_DOT = .2389E-4
MEAN_MOTION_DDOT = 0

CCSDS_OMM_VERS = 2.0
CREATION_DATE  = 
ORIGINATOR     = 

OBJECT_NAME    = UNKNOWN
OBJECT_ID      = 
CENTER_NAME    = EARTH
REF_FRAME      = TEME
TIME_SYSTEM    = UTC
MEAN_ELEMENT_THEORY = SGP/SGP4

EPOCH          = 2026-02-24T16:00:42.601536
MEAN_MOTION    = 14.16669333
ECCENTRICITY   = .0083852
INCLINATION    = 99.0175
RA_OF_ASC_NODE = 130.4224
ARG_OF_PERICENTER = 189.6557
MEAN_ANOMALY   = 170.3009

EPHEMERIS_TYPE = 0
CLASSIFICATION_TYPE = U
NORAD_CAT_ID   = 89494
ELEMENT_SET_NO = 999
REV_AT_EPOCH   = 47426
BSTAR          = .12746E-2
MEAN_MOTION_DOT = .2589E-4
MEAN_MOTION_DDOT = 0

CCSDS_OMM_VERS = 2.0
CREATION_DATE  = 
ORIGINATOR     = 

OBJECT_NAME    = UNKNOWN
OBJECT_ID      = 
CENTER_NAME    = EARTH
REF_FRAME      = TEME
TIME_SYSTEM    = UTC
MEAN_ELEMENT_THEORY = SGP/SGP4

EPOCH          = 2026-02-18T06:00:37.535616
MEAN_MOTION    = 12.96134871
ECCENTRICITY   = .00327013
INCLINATION    = 90.2325
RA_OF_ASC_NODE = 345.3302
ARG_OF_PERICENTER = 69.4912
MEAN_ANOMALY   = 290.9713

EPHEMERIS_TYPE = 0
CLASSIFICATION_TYPE = U
NORAD_CAT_ID   = 270000
ELEMENT_SET_NO = 999
REV_AT_EPOCH   = 29468
BSTAR          = .10934009E-2
MEAN_MOTION_DOT = .32E-5
MEAN_MOTION_DDOT = 0

CCSDS_OMM_VERS = 2.0
CREATION_DATE  = 
ORIGINATOR     = 

OBJECT_NAME    = UNKNOWN
OBJECT_ID      = 
CENTER_NAME    = EARTH
REF_FRAME      = TEME
TIME_SYSTEM    = UTC
MEAN_ELEMENT_THEORY = SGP/SGP4

EPOCH          = 2026-02-18T12:15:25.310304
MEAN_MOTION    = 12.45696817
ECCENTRICITY   = .00435848
INCLINATION    = 101.8188
RA_OF_ASC_NODE = 161.4482
ARG_OF_PERICENTER = 88.9301
MEAN_ANOMALY   = 271.6760

EPHEMERIS_TYPE = 0
CLASSIFICATION_TYPE = U
NORAD_CAT_ID   = 270001
ELEMENT_SET_NO = 999
REV_AT_EPOCH   = 28337
BSTAR          = .47928676E-3
MEAN_MOTION_DOT = .25E-6
MEAN_MOTION_DDOT = 0

CCSDS_OMM_VERS = 2.0
CREATION_DATE  = 
ORIGINATOR     = 

OBJECT_NAME    = UNKNOWN
OBJECT_ID      = 
CENTER_NAME    = EARTH
REF_FRAME      = TEME
TIME_SYSTEM    = UTC
MEAN_ELEMENT_THEORY = SGP/SGP4

EPOCH          = 2026-02-02T08:41:54.824640
MEAN_MOTION    = 13.06726686
ECCENTRICITY   = .0511193
INCLINATION    = 99.6547
RA_OF_ASC_NODE = 72.1657
ARG_OF_PERICENTER = 120.8886
MEAN_ANOMALY   = 244.3527

EPHEMERIS_TYPE = 0
CLASSIFICATION_TYPE = U
NORAD_CAT_ID   = 270003
ELEMENT_SET_NO = 999
REV_AT_EPOCH   = 29408
BSTAR          = .15159578E-2
MEAN_MOTION_DOT = .913E-5
MEAN_MOTION_DDOT = 0

CCSDS_OMM_VERS = 2.0
CREATION_DATE  = 
ORIGINATOR     = 

OBJECT_NAME    = UNKNOWN
OBJECT_ID      = 
CENTER_NAME    = EARTH
REF_FRAME      = TEME
TIME_SYSTEM    = UTC
MEAN_ELEMENT_THEORY = SGP/SGP4

EPOCH          = 2026-01-27T15:42:35.436384
MEAN_MOTION    = 12.23864729
ECCENTRICITY   = .01630937
INCLINATION    = 101.7024
RA_OF_ASC_NODE = 174.1707
ARG_OF_PERICENTER = 77.1389
MEAN_ANOMALY   = 284.7831

EPHEMERIS_TYPE = 0
CLASSIFICATION_TYPE = U
NORAD_CAT_ID   = 270004
ELEMENT_SET_NO = 999
REV_AT_EPOCH   = 27579
BSTAR          = .13037788E-2
MEAN_MOTION_DOT = .108E-5
MEAN_MOTION_DDOT = 0

CCSDS_OMM_VERS = 2.0
CREATION_DATE  = 
ORIGINATOR     = 

OBJECT_NAME    = UNKNOWN
OBJECT_ID      = 
CENTER_NAME    = EARTH
REF_FRAME      = TEME
TIME_SYSTEM    = UTC
MEAN_ELEMENT_THEORY = SGP/SGP4

EPOCH          = 2026-02-01T18:23:03.337440
MEAN_MOTION    = 12.16701916
ECCENTRICITY   = .03303156
INCLINATION    = 103.0807
RA_OF_ASC_NODE = 228.6010
ARG_OF_PERICENTER = 81.7449
MEAN_ANOMALY   = 282.0910

EPHEMERIS_TYPE = 0
CLASSIFICATION_TYPE = U
NORAD_CAT_ID   = 270005
ELEMENT_SET_NO = 999
REV_AT_EPOCH   = 27382
BSTAR          = .11172466E-1
MEAN_MOTION_DOT = .127E-4
MEAN_MOTION_DDOT = 0

